{"type": "FeatureCollection", "features": [ {"type": "Feature", "properties": {"norad_id": 33825, "name": "COSMOS 2251 DEB", "group": "cosmos-2251-debris", "lat": 73.22766692938178, "lon": 119.46929515178532, "alt_km": 681.978132686042, "timestamp": "2025-12-20T22:39:11.017797+00:00", "meta": {"OBJECT_NAME": "COSMOS 2251 DEB", "OBJECT_ID": "1993-036BS", "EPOCH": "2025-12-20T11:19:17.073696", "MEAN_MOTION": 14.69826205, "ECCENTRICITY": 0.00849395, "INCLINATION": 73.9844, "RA_OF_ASC_NODE": 12.7547, "ARG_OF_PERICENTER": 337.9681, "MEAN_ANOMALY": 138.872, "EPHEMERIS_TYPE": 0, "CLASSIFICATION_TYPE": "U", "NORAD_CAT_ID": 33825, "ELEMENT_SET_NO": 999, "REV_AT_EPOCH": 88993, "BSTAR": 0.00055372478, "MEAN_MOTION_DOT": 3.463e-05, "MEAN_MOTION_DDOT": 0}, "tle": {"line1": "1 33825U 93036BS  25354.47172539  .00003463  00000+0  55372-3 0  9999", "line2": "2 33825  73.9844  12.7547 0084939 337.9681 138.8720 14.69826205889933"}}, "geometry": {"type": "Point", "coordinates": [119.46929515178532, 73.22766692938178]}}, {"type": "Feature", "properties": {"norad_id": 33826, "name": "COSMOS 2251 DEB", "group": "cosmos-2251-debris", "lat": 7.586628424161313, "lon": -147.72888228344672, "alt_km": 727.0820372454691, "timestamp": "2025-12-20T22:39:11.017807+00:00", "meta": {"OBJECT_NAME": "COSMOS 2251 DEB", "OBJECT_ID": "1993-036BT", "EPOCH": "2025-12-20T14:09:39.581280", "MEAN_MOTION": 14.5175577, "ECCENTRICITY": 0.00825639, "INCLINATION": 74.0644, "RA_OF_ASC_NODE": 35.117, "ARG_OF_PERICENTER": 76.8214, "MEAN_ANOMALY": 45.7262, "EPHEMERIS_TYPE": 0, "CLASSIFICATION_TYPE": "U", "NORAD_CAT_ID": 33826, "ELEMENT_SET_NO": 999, "REV_AT_EPOCH": 87883, "BSTAR": 0.00036978277, "MEAN_MOTION_DOT": 1.525e-05, "MEAN_MOTION_DDOT": 0}, "tle": {"line1": "1 33826U 93036BT  25354.59004145  .00001525  00000+0  36978-3 0  9998", "line2": "2 33826  74.0644  35.1170 0082563  76.8214  45.7262 14.51755770878830"}}, "geometry": {"type": "Point", "coordinates": [-147.72888228344672, 7.586628424161313]}}, {"type": "Feature", "properties": {"norad_id": 33828, "name": "COSMOS 2251 DEB", "group": "cosmos-2251-debris", "lat": -27.98473052029047, "lon": 51.57787029954042, "alt_km": 747.8432244676824, "timestamp": "2025-12-20T22:39:11.017816+00:00", "meta": {"OBJECT_NAME": "COSMOS 2251 DEB", "OBJECT_ID": "1993-036BV", "EPOCH": "2025-12-20T15:08:12.575040", "MEAN_MOTION": 14.44353865, "ECCENTRICITY": 0.00295139, "INCLINATION": 74.0454, "RA_OF_ASC_NODE": 223.4166, "ARG_OF_PERICENTER": 295.1404, "MEAN_ANOMALY": 86.5486, "EPHEMERIS_TYPE": 0, "CLASSIFICATION_TYPE": "U", "NORAD_CAT_ID": 33828, "ELEMENT_SET_NO": 999, "REV_AT_EPOCH": 88427, "BSTAR": 0.00027418263, "MEAN_MOTION_DOT": 9.22e-06, "MEAN_MOTION_DDOT": 0}, "tle": {"line1": "1 33828U 93036BV  25354.63070110  .00000922  00000+0  27418-3 0  9999", "line2": "2 33828  74.0454 223.4166 0029513 295.1404  86.5486 14.44353865884278"}}, "geometry": {"type": "Point", "coordinates": [51.57787029954042, -27.98473052029047]}}, {"type": "Feature", "properties": {"norad_id": 33830, "name": "COSMOS 2251 DEB", "group": "cosmos-2251-debris", "lat": -32.36252896162724, "lon": -156.17376226829953, "alt_km": 614.9514699214715, "timestamp": "2025-12-20T22:39:11.017827+00:00", "meta": {"OBJECT_NAME": "COSMOS 2251 DEB", "OBJECT_ID": "1993-036BX", "EPOCH": "2025-12-20T02:23:57.641280", "MEAN_MOTION": 14.76972703, "ECCENTRICITY": 0.00425749, "INCLINATION": 74.0314, "RA_OF_ASC_NODE": 215.935, "ARG_OF_PERICENTER": 334.516, "MEAN_ANOMALY": 186.5439, "EPHEMERIS_TYPE": 0, "CLASSIFICATION_TYPE": "U", "NORAD_CAT_ID": 33830, "ELEMENT_SET_NO": 999, "REV_AT_EPOCH": 89580, "BSTAR": 0.00047360759, "MEAN_MOTION_DOT": 3.353e-05, "MEAN_MOTION_DDOT": 0}, "tle": {"line1": "1 33830U 93036BX  25354.09997270  .00003353  00000+0  47361-3 0  9997", "line2": "2 33830  74.0314 215.9350 0042574 334.5160 186.5439 14.76972703895809"}}, "geometry": {"type": "Point", "coordinates": [-156.17376226829953, -32.36252896162724]}}, {"type": "Feature", "properties": {"norad_id": 33832, "name": "COSMOS 2251 DEB", "group": "cosmos-2251-debris", "lat": -69.64105866006035, "lon": 64.72475342031478, "alt_km": 683.2999285389615, "timestamp": "2025-12-20T22:39:11.017837+00:00", "meta": {"OBJECT_NAME": "COSMOS 2251 DEB", "OBJECT_ID": "1993-036BZ", "EPOCH": "2025-12-20T13:23:52.438848", "MEAN_MOTION": 14.60728869, "ECCENTRICITY": 0.00244182, "INCLINATION": 74.0526, "RA_OF_ASC_NODE": 195.056, "ARG_OF_PERICENTER": 224.6655, "MEAN_ANOMALY": 165.2826, "EPHEMERIS_TYPE": 0, "CLASSIFICATION_TYPE": "U", "NORAD_CAT_ID": 33832, "ELEMENT_SET_NO": 999, "REV_AT_EPOCH": 88539, "BSTAR": 0.00077782056, "MEAN_MOTION_DOT": 3.78e-05, "MEAN_MOTION_DDOT": 0}, "tle": {"line1": "1 33832U 93036BZ  25354.55824582  .00003780  00000+0  77782-3 0  9999", "line2": "2 33832  74.0526 195.0560 0024418 224.6655 165.2826 14.60728869885394"}}, "geometry": {"type": "Point", "coordinates": [64.72475342031478, -69.64105866006035]}}, {"type": "Feature", "properties": {"norad_id": 33835, "name": "COSMOS 2251 DEB", "group": "cosmos-2251-debris", "lat": 38.63697064011602, "lon": -107.79061738369211, "alt_km": 644.2943541310988, "timestamp": "2025-12-20T22:39:11.017847+00:00", "meta": {"OBJECT_NAME": "COSMOS 2251 DEB", "OBJECT_ID": "1993-036CC", "EPOCH": "2025-12-20T12:14:24.249696", "MEAN_MOTION": 14.62319651, "ECCENTRICITY": 0.00540667, "INCLINATION": 74.0578, "RA_OF_ASC_NODE": 86.247, "ARG_OF_PERICENTER": 137.5414, "MEAN_ANOMALY": 238.7217, "EPHEMERIS_TYPE": 0, "CLASSIFICATION_TYPE": "U", "NORAD_CAT_ID": 33835, "ELEMENT_SET_NO": 999, "REV_AT_EPOCH": 88903, "BSTAR": 0.00060794085, "MEAN_MOTION_DOT": 3.105e-05, "MEAN_MOTION_DDOT": 0}, "tle": {"line1": "1 33835U 93036CC  25354.51000289  .00003105  00000+0  60794-3 0  9994", "line2": "2 33835  74.0578  86.2470 0054066 137.5414 238.7217 14.62319651889034"}}, "geometry": {"type": "Point", "coordinates": [-107.79061738369211, 38.63697064011602]}}, {"type": "Feature", "properties": {"norad_id": 33836, "name": "COSMOS 2251 DEB", "group": "cosmos-2251-debris", "lat": -41.54381325463394, "lon": -131.97149025003912, "alt_km": 647.8709510851213, "timestamp": "2025-12-20T22:39:11.017857+00:00", "meta": {"OBJECT_NAME": "COSMOS 2251 DEB", "OBJECT_ID": "1993-036CD", "EPOCH": "2025-12-20T10:39:36.743328", "MEAN_MOTION": 14.79741719, "ECCENTRICITY": 0.00226787, "INCLINATION": 73.9969, "RA_OF_ASC_NODE": 243.7467, "ARG_OF_PERICENTER": 94.0228, "MEAN_ANOMALY": 81.7774, "EPHEMERIS_TYPE": 0, "CLASSIFICATION_TYPE": "U", "NORAD_CAT_ID": 33836, "ELEMENT_SET_NO": 999, "REV_AT_EPOCH": 64202, "BSTAR": 0.0007142356, "MEAN_MOTION_DOT": 5.363e-05, "MEAN_MOTION_DDOT": 0}, "tle": {"line1": "1 33836U 93036CD  25354.44417527  .00005363  00000+0  71424-3 0  9994", "line2": "2 33836  73.9969 243.7467 0022678  94.0228  81.7774 14.79741719642029"}}, "geometry": {"type": "Point", "coordinates": [-131.97149025003912, -41.54381325463394]}}, {"type": "Feature", "properties": {"norad_id": 33837, "name": "COSMOS 2251 DEB", "group": "cosmos-2251-debris", "lat": 19.10197327207411, "lon": -145.54583069661413, "alt_km": 727.7318612520075, "timestamp": "2025-12-20T22:39:11.017866+00:00", "meta": {"OBJECT_NAME": "COSMOS 2251 DEB", "OBJECT_ID": "1993-036CE", "EPOCH": "2025-12-20T13:38:21.094944", "MEAN_MOTION": 14.50716351, "ECCENTRICITY": 0.00359056, "INCLINATION": 74.0125, "RA_OF_ASC_NODE": 40.8592, "ARG_OF_PERICENTER": 261.3278, "MEAN_ANOMALY": 98.3814, "EPHEMERIS_TYPE": 0, "CLASSIFICATION_TYPE": "U", "NORAD_CAT_ID": 33837, "ELEMENT_SET_NO": 999, "REV_AT_EPOCH": 88909, "BSTAR": 0.000170419, "MEAN_MOTION_DOT": 6.47e-06, "MEAN_MOTION_DDOT": 0}, "tle": {"line1": "1 33837U 93036CE  25354.56829971  .00000647  00000+0  17042-3 0  9994", "line2": "2 33837  74.0125  40.8592 0035905 261.3278  98.3814 14.50716351889094"}}, "geometry": {"type": "Point", "coordinates": [-145.54583069661413, 19.10197327207411]}}, {"type": "Feature", "properties": {"norad_id": 33838, "name": "COSMOS 2251 DEB", "group": "cosmos-2251-debris", "lat": -34.24691965902627, "lon": 123.21155877138118, "alt_km": 729.7674790372648, "timestamp": "2025-12-20T22:39:11.017876+00:00", "meta": {"OBJECT_NAME": "COSMOS 2251 DEB", "OBJECT_ID": "1993-036CF", "EPOCH": "2025-12-20T09:42:46.395360", "MEAN_MOTION": 14.48384547, "ECCENTRICITY": 0.00275049, "INCLINATION": 74.036, "RA_OF_ASC_NODE": 135.4587, "ARG_OF_PERICENTER": 256.2914, "MEAN_ANOMALY": 137.4758, "EPHEMERIS_TYPE": 0, "CLASSIFICATION_TYPE": "U", "NORAD_CAT_ID": 33838, "ELEMENT_SET_NO": 999, "REV_AT_EPOCH": 88680, "BSTAR": 0.00029293956, "MEAN_MOTION_DOT": 1.074e-05, "MEAN_MOTION_DDOT": 0}, "tle": {"line1": "1 33838U 93036CF  25354.40470365  .00001074  00000+0  29294-3 0  9994", "line2": "2 33838  74.0360 135.4587 0027504 256.2914 137.4758 14.48384547886800"}}, "geometry": {"type": "Point", "coordinates": [123.21155877138118, -34.24691965902627]}}, {"type": "Feature", "properties": {"norad_id": 33839, "name": "COSMOS 2251 DEB", "group": "cosmos-2251-debris", "lat": 4.756170500718802, "lon": -167.91956932114687, "alt_km": 654.2368401754356, "timestamp": "2025-12-20T22:39:11.017885+00:00", "meta": {"OBJECT_NAME": "COSMOS 2251 DEB", "OBJECT_ID": "1993-036CG", "EPOCH": "2025-12-20T06:45:19.181664", "MEAN_MOTION": 14.64437358, "ECCENTRICITY": 0.00852999, "INCLINATION": 74.0376, "RA_OF_ASC_NODE": 191.9883, "ARG_OF_PERICENTER": 302.3345, "MEAN_ANOMALY": 171.1071, "EPHEMERIS_TYPE": 0, "CLASSIFICATION_TYPE": "U", "NORAD_CAT_ID": 33839, "ELEMENT_SET_NO": 999, "REV_AT_EPOCH": 89690, "BSTAR": 0.00014426696, "MEAN_MOTION_DOT": 7.7e-06, "MEAN_MOTION_DDOT": 0}, "tle": {"line1": "1 33839U 93036CG  25354.28147201  .00000770  00000+0  14427-3 0  9995", "line2": "2 33839  74.0376 191.9883 0085299 302.3345 171.1071 14.64437358896902"}}, "geometry": {"type": "Point", "coordinates": [-167.91956932114687, 4.756170500718802]}}]}